{
  "norad_id": 63858,
  "name": "STARLINK-33976",
  "history": [
    {
      "epoch": "2026-03-28T09:34:42.123360Z",
      "apogee_km": 483.3163867506364,
      "perigee_km": 482.58636694733923,
      "latitude_deg": 2.6760305064648265e-06,
      "longitude_deg": 2.7012835430913853,
      "height_km": 482.3708662601719,
      "semi_major_axis_km": 6861.0883768489875,
      "eccentricity": 5.32e-05,
      "inclination_deg": 43.0022,
      "raan_deg": 332.1969,
      "arg_perigee_deg": 12.6924,
      "mean_anomaly_deg": 347.3941,
      "mean_motion_rev_day": 15.27612635
    },
    {
      "epoch": "2026-03-29T01:16:14.932704Z",
      "apogee_km": 484.1442337226208,
      "perigee_km": 481.779898984355,
      "latitude_deg": -1.4555018205680199e-05,
      "longitude_deg": 122.97879346224661,
      "height_km": 482.5707605909767,
      "semi_major_axis_km": 6861.099066353488,
      "eccentricity": 0.0001723,
      "inclination_deg": 43.0037,
      "raan_deg": 328.5056,
      "arg_perigee_deg": 278.2038,
      "mean_anomaly_deg": 81.8618,
      "mean_motion_rev_day": 15.27609065
    },
    {
      "epoch": "2026-03-29T09:07:02.247168Z",
      "apogee_km": 483.3907545695447,
      "perigee_km": 482.6107804281355,
      "latitude_deg": 4.2627498283512416e-05,
      "longitude_deg": 3.1122676778887355,
      "height_km": 482.47950560260125,
      "semi_major_axis_km": 6861.13776749884,
      "eccentricity": 5.684e-05,
      "inclination_deg": 43.001,
      "raan_deg": 326.6584,
      "arg_perigee_deg": 319.6437,
      "mean_anomaly_deg": 40.4373,
      "mean_motion_rev_day": 15.2759614
    },
    {
      "epoch": "2026-03-30T08:39:23.540832Z",
      "apogee_km": 485.9152654373838,
      "perigee_km": 480.24652721143957,
      "latitude_deg": 2.5449551538099557e-05,
      "longitude_deg": 3.517803916585504,
      "height_km": 483.141381784041,
      "semi_major_axis_km": 6861.217896324411,
      "eccentricity": 0.0004131,
      "inclination_deg": 43.0014,
      "raan_deg": 321.1194,
      "arg_perigee_deg": 264.2915,
      "mean_anomaly_deg": 95.7466,
      "mean_motion_rev_day": 15.2756938
    },
    {
      "epoch": "2026-03-30T16:30:12.071808Z",
      "apogee_km": 483.9003495694342,
      "perigee_km": 482.3199299032667,
      "latitude_deg": 1.3935567559712655e-05,
      "longitude_deg": -116.35207759164607,
      "height_km": 482.85099670011806,
      "semi_major_axis_km": 6861.247139736351,
      "eccentricity": 0.00011517,
      "inclination_deg": 43.0034,
      "raan_deg": 319.274,
      "arg_perigee_deg": 272.6125,
      "mean_anomaly_deg": 87.4595,
      "mean_motion_rev_day": 15.27559614
    },
    {
      "epoch": "2026-03-31T08:11:45.525696Z",
      "apogee_km": 483.70448232108447,
      "perigee_km": 482.2663910583542,
      "latitude_deg": 5.338813738416441e-06,
      "longitude_deg": 3.921049629994486,
      "height_km": 482.5473031529511,
      "semi_major_axis_km": 6861.1224366897195,
      "eccentricity": 0.0001048,
      "inclination_deg": 42.9993,
      "raan_deg": 315.581,
      "arg_perigee_deg": 287.3515,
      "mean_anomaly_deg": 72.7222,
      "mean_motion_rev_day": 15.2760126
    },
    {
      "epoch": "2026-03-31T23:53:18.888000Z",
      "apogee_km": 483.535162254695,
      "perigee_km": 482.2983887011269,
      "latitude_deg": -5.446403734394168e-05,
      "longitude_deg": 124.19570496412527,
      "height_km": 482.533663537716,
      "semi_major_axis_km": 6861.053775477911,
      "eccentricity": 9.013e-05,
      "inclination_deg": 43.0003,
      "raan_deg": 311.8892,
      "arg_perigee_deg": 284.939,
      "mean_anomaly_deg": 75.1361,
      "mean_motion_rev_day": 15.27624191
    },
    {
      "epoch": "2026-04-02T07:16:25.927104Z",
      "apogee_km": 483.39342659930026,
      "perigee_km": 482.40173266116017,
      "latitude_deg": -4.7045041435164674e-05,
      "longitude_deg": 4.738136731184477,
      "height_km": 482.29247147009545,
      "semi_major_axis_km": 6861.03457963023,
      "eccentricity": 7.227e-05,
      "inclination_deg": 43.0047,
      "raan_deg": 304.4999,
      "arg_perigee_deg": 39.8619,
      "mean_anomaly_deg": 320.2285,
      "mean_motion_rev_day": 15.27630602
    },
    {
      "epoch": "2026-04-02T21:23:48.936768Z",
      "apogee_km": 483.21555609358984,
      "perigee_km": 482.5401577910725,
      "latitude_deg": -1.9578862243878962e-05,
      "longitude_deg": 148.99117943447166,
      "height_km": 482.47986508763876,
      "semi_major_axis_km": 6861.014856942331,
      "eccentricity": 4.922e-05,
      "inclination_deg": 43.0022,
      "raan_deg": 301.1788,
      "arg_perigee_deg": 301.031,
      "mean_anomaly_deg": 59.0493,
      "mean_motion_rev_day": 15.27637189
    },
    {
      "epoch": "2026-04-03T14:39:32.529888Z",
      "apogee_km": 484.0250069127396,
      "perigee_km": 481.94883081489206,
      "latitude_deg": -1.0346640052214036e-05,
      "longitude_deg": -114.71457832609126,
      "height_km": 482.6613516113787,
      "semi_major_axis_km": 6861.123918863816,
      "eccentricity": 0.0001513,
      "inclination_deg": 42.9992,
      "raan_deg": 297.1136,
      "arg_perigee_deg": 84.516,
      "mean_anomaly_deg": 275.5864,
      "mean_motion_rev_day": 15.27600765
    },
    {
      "epoch": "2026-04-04T14:11:53.871072Z",
      "apogee_km": 483.4638891670347,
      "perigee_km": 482.5787997406005,
      "latitude_deg": -7.543423824514273e-06,
      "longitude_deg": -114.30612064492625,
      "height_km": 483.1500527065179,
      "semi_major_axis_km": 6861.158344453817,
      "eccentricity": 6.45e-05,
      "inclination_deg": 42.9974,
      "raan_deg": 291.5777,
      "arg_perigee_deg": 217.0383,
      "mean_anomaly_deg": 143.0424,
      "mean_motion_rev_day": 15.27589268
    },
    {
      "epoch": "2026-04-05T13:44:15.352224Z",
      "apogee_km": 483.0759618363563,
      "perigee_km": 482.96014553905025,
      "latitude_deg": -4.7201217441368083e-07,
      "longitude_deg": -113.9020440293916,
      "height_km": 482.83087737016155,
      "semi_major_axis_km": 6861.155053687703,
      "eccentricity": 8.44e-06,
      "inclination_deg": 43.0009,
      "raan_deg": 286.038,
      "arg_perigee_deg": 130.2134,
      "mean_anomaly_deg": 229.8725,
      "mean_motion_rev_day": 15.27590367
    },
    {
      "epoch": "2026-04-05T20:00:52.861824Z",
      "apogee_km": 484.21860013363494,
      "perigee_km": 481.9008878735103,
      "latitude_deg": 2.666408114773981e-05,
      "longitude_deg": 150.20550367695142,
      "height_km": 483.1338989551428,
      "semi_major_axis_km": 6861.196744003572,
      "eccentricity": 0.0001689,
      "inclination_deg": 43.0025,
      "raan_deg": 284.5596,
      "arg_perigee_deg": 255.1486,
      "mean_anomaly_deg": 104.9179,
      "mean_motion_rev_day": 15.27576444
    },
    {
      "epoch": "2026-04-05T21:35:02.393664Z",
      "apogee_km": 484.0858681631671,
      "perigee_km": 482.0760801941706,
      "latitude_deg": 2.173668737163814e-05,
      "longitude_deg": 126.231932853941,
      "height_km": 483.14181284293943,
      "semi_major_axis_km": 6861.217974178669,
      "eccentricity": 0.00014646,
      "inclination_deg": 43.0016,
      "raan_deg": 284.1902,
      "arg_perigee_deg": 253.5838,
      "mean_anomaly_deg": 106.4853,
      "mean_motion_rev_day": 15.27569354
    },
    {
      "epoch": "2026-04-07T12:48:56.954592Z",
      "apogee_km": 484.0960389484444,
      "perigee_km": 481.9061008992867,
      "latitude_deg": 4.2585599704019984e-05,
      "longitude_deg": -113.08818003937746,
      "height_km": 482.86695213016964,
      "semi_major_axis_km": 6861.138069923865,
      "eccentricity": 0.00015959,
      "inclination_deg": 43.0022,
      "raan_deg": 274.9586,
      "arg_perigee_deg": 265.3484,
      "mean_anomaly_deg": 94.7186,
      "mean_motion_rev_day": 15.27596039
    },
    {
      "epoch": "2026-04-07T19:05:34.441728Z",
      "apogee_km": 484.4293733966033,
      "perigee_km": 481.6162978639941,
      "latitude_deg": -5.525017554789472e-06,
      "longitude_deg": 151.02048098445093,
      "height_km": 482.49886349499457,
      "semi_major_axis_km": 6861.159835630298,
      "eccentricity": 0.000205,
      "inclination_deg": 43.0001,
      "raan_deg": 273.4813,
      "arg_perigee_deg": 282.3653,
      "mean_anomaly_deg": 77.6969,
      "mean_motion_rev_day": 15.2758877
    },
    {
      "epoch": "2026-04-08T12:21:17.546688Z",
      "apogee_km": 484.0984716369321,
      "perigee_km": 481.94722357831324,
      "latitude_deg": 4.6022764259154606e-05,
      "longitude_deg": -112.67979430026325,
      "height_km": 482.93010452756266,
      "semi_major_axis_km": 6861.159847607622,
      "eccentricity": 0.00015677,
      "inclination_deg": 43.0018,
      "raan_deg": 269.4195,
      "arg_perigee_deg": 263.0448,
      "mean_anomaly_deg": 97.0226,
      "mean_motion_rev_day": 15.27588766
    },
    {
      "epoch": "2026-04-08T18:37:55.086528Z",
      "apogee_km": 484.15712674110273,
      "perigee_km": 481.8845740378956,
      "latitude_deg": -1.1720264502456592e-05,
      "longitude_deg": 151.42903620955587,
      "height_km": 482.9302780408488,
      "semi_major_axis_km": 6861.157850389499,
      "eccentricity": 0.00016561,
      "inclination_deg": 43.0019,
      "raan_deg": 267.9426,
      "arg_perigee_deg": 263.312,
      "mean_anomaly_deg": 96.7543,
      "mean_motion_rev_day": 15.27589433
    },
    {
      "epoch": "2026-04-10T11:25:59.100672Z",
      "apogee_km": 484.0346376409025,
      "perigee_km": 482.0256878956434,
      "latitude_deg": 6.513814440810972e-06,
      "longitude_deg": -111.86371693505484,
      "height_km": 482.83197396490726,
      "semi_major_axis_km": 6861.167162768273,
      "eccentricity": 0.0001464,
      "inclination_deg": 43.0008,
      "raan_deg": 258.3422,
      "arg_perigee_deg": 268.5754,
      "mean_anomaly_deg": 91.493,
      "mean_motion_rev_day": 15.27586323
    }
  ]
}